ONEWEB-0593             
1 54659U 22166T   23360.59594540  .00000052  00000+0  93375-4 0  9998
2 54659  87.9245  63.8570 0001618  95.7678 264.3641 13.21826267 52172
ONEWEB-0594             
1 54660U 22166U   23360.23637511  .00000013  00000+0  95499-6 0  9995
2 54660  87.9244  63.9242 0001762 109.4636 250.6689 13.21827476 52147
ONEWEB-0595             
1 54661U 22166V   23360.59278258  .00000045  00000+0  76756-4 0  9992
2 54661  87.9241  63.8448 0002118 103.6677 256.4693 13.21824016 52167
ONEWEB-0596             
1 54662U 22166W   23360.56598710 -.00000056  00000+0 -16601-3 0  9994
2 54662  87.9241  63.8522 0001731  88.6881 271.4451 13.21827928 52164
ONEWEB-0597             
1 54663U 22166X   23360.24426418  .00000059  00000+0  11138-3 0  9996
2 54663  87.9244  63.9172 0001404  97.2331 262.8963 13.21827250 52129
ONEWEB-0600             
1 54664U 22166Y   23360.60541190  .00003619  00000+0  87296-2 0  9994
2 54664  87.9238  63.8955 0001754 102.2765 257.8566 13.21808040 52148
ONEWEB-0601             
1 54665U 22166Z   23360.59754171  .00000444  00000+0  10429-2 0  9995
2 54665  87.9242  63.8480 0001473  84.4000 275.7302 13.21825627 52336
ONEWEB-0602             
1 54666U 22166AA  23360.56282234 -.00000154  00000+0 -40357-3 0  9993
2 54666  87.9244  63.8613 0001428  95.4976 264.6321 13.21826754 52173
